KYSAT
1 99999U 00000    11063.43259919 0.00000000  00000-0  00000-0 0  0000
2 99999  97.9564   8.4412 0007658  67.0214 113.6793 14.77265551000000